{
  "type": "FeatureCollection",
  "features": [
    {
      "type": "Feature",
      "properties": {
        "norad_id": 31339,
        "name": "FENGYUN 1C DEB",
        "group": "fengyun-1c-debris",
        "lat": 66.61583424144526,
        "lon": -141.3785843947101,
        "alt_km": 898.2741277084651,
        "timestamp": "2025-12-27T14:26:30.803727+00:00",
        "meta_object_name": "FENGYUN 1C DEB",
        "meta_object_id": "1999-025BQT",
        "meta_epoch": "2025-12-27T07:06:30.522240",
        "meta_mean_motion": 14.12219821,
        "meta_eccentricity": 0.00742789,
        "meta_inclination": 98.7131,
        "meta_ra_of_asc_node": 17.5527,
        "meta_arg_of_pericenter": 283.455,
        "meta_mean_anomaly": 75.8352,
        "meta_ephemeris_type": 0,
        "meta_classification_type": "U",
        "meta_norad_cat_id": 31339,
        "meta_element_set_no": 999,
        "meta_rev_at_epoch": 95883,
        "meta_bstar": 0.00096548273,
        "meta_mean_motion_dot": 1.778e-05,
        "meta_mean_motion_ddot": 0,
        "tle_line1": "1 31339U 99025BQT 25361.29618660  .00001778  00000+0  96548-3 0  9996",
        "tle_line2": "2 31339  98.7131  17.5527 0074278 283.4550  75.8352 14.12219821958836"
      },
      "geometry": {
        "type": "Point",
        "coordinates": [
          -141.3785843947101,
          66.61583424144526
        ]
      }
    },
    {
      "type": "Feature",
      "properties": {
        "norad_id": 31341,
        "name": "FENGYUN 1C DEB",
        "group": "fengyun-1c-debris",
        "lat": 22.427575992006975,
        "lon": -131.09682751633588,
        "alt_km": 744.6185960491539,
        "timestamp": "2025-12-27T14:26:30.803737+00:00",
        "meta_object_name": "FENGYUN 1C DEB",
        "meta_object_id": "1999-025BQV",
        "meta_epoch": "2025-12-27T02:24:24.908256",
        "meta_mean_motion": 14.5347001,
        "meta_eccentricity": 0.00530002,
        "meta_inclination": 99.5551,
        "meta_ra_of_asc_node": 44.3455,
        "meta_arg_of_pericenter": 303.4736,
        "meta_mean_anomaly": 111.62,
        "meta_ephemeris_type": 0,
        "meta_classification_type": "U",
        "meta_norad_cat_id": 31341,
        "meta_element_set_no": 999,
        "meta_rev_at_epoch": 97827,
        "meta_bstar": 0.0015194618,
        "meta_mean_motion_dot": 6.397e-05,
        "meta_mean_motion_ddot": 0,
        "tle_line1": "1 31341U 99025BQV 25361.10028829  .00006397  00000+0  15195-2 0  9991",
        "tle_line2": "2 31341  99.5551  44.3455 0053000 303.4736 111.6200 14.53470010978276"
      },
      "geometry": {
        "type": "Point",
        "coordinates": [
          -131.09682751633588,
          22.427575992006975
        ]
      }
    },
    {
      "type": "Feature",
      "properties": {
        "norad_id": 31342,
        "name": "FENGYUN 1C DEB",
        "group": "fengyun-1c-debris",
        "lat": 64.81871063549596,
        "lon": 157.9780022254592,
        "alt_km": 724.340677915754,
        "timestamp": "2025-12-27T14:26:30.803748+00:00",
        "meta_object_name": "FENGYUN 1C DEB",
        "meta_object_id": "1999-025BQW",
        "meta_epoch": "2025-12-26T02:48:41.180256",
        "meta_mean_motion": 14.36778635,
        "meta_eccentricity": 0.01120291,
        "meta_inclination": 98.9375,
        "meta_ra_of_asc_node": 316.8824,
        "meta_arg_of_pericenter": 179.8231,
        "meta_mean_anomaly": 180.3013,
        "meta_ephemeris_type": 0,
        "meta_classification_type": "U",
        "meta_norad_cat_id": 31342,
        "meta_element_set_no": 999,
        "meta_rev_at_epoch": 98083,
        "meta_bstar": 0.00011079639,
        "meta_mean_motion_dot": 3.01e-06,
        "meta_mean_motion_ddot": 0,
        "tle_line1": "1 31342U 99025BQW 25360.11714329  .00000301  00000+0  11080-3 0  9998",
        "tle_line2": "2 31342  98.9375 316.8824 0112029 179.8231 180.3013 14.36778635980838"
      },
      "geometry": {
        "type": "Point",
        "coordinates": [
          157.9780022254592,
          64.81871063549596
        ]
      }
    },
    {
      "type": "Feature",
      "properties": {
        "norad_id": 31346,
        "name": "FENGYUN 1C DEB",
        "group": "fengyun-1c-debris",
        "lat": -44.93244026712831,
        "lon": -20.120216484377522,
        "alt_km": 464.6875873858262,
        "timestamp": "2025-12-27T14:26:30.803759+00:00",
        "meta_object_name": "FENGYUN 1C DEB",
        "meta_object_id": "1999-025BRA",
        "meta_epoch": "2025-12-22T15:28:43.197024",
        "meta_mean_motion": 15.11348724,
        "meta_eccentricity": 0.0108825,
        "meta_inclination": 98.867,
        "meta_ra_of_asc_node": 325.1755,
        "meta_arg_of_pericenter": 342.8884,
        "meta_mean_anomaly": 16.8683,
        "meta_ephemeris_type": 0,
        "meta_classification_type": "U",
        "meta_norad_cat_id": 31346,
        "meta_element_set_no": 999,
        "meta_rev_at_epoch": 99645,
        "meta_bstar": 0.0012559476,
        "meta_mean_motion_dot": 0.00024407,
        "meta_mean_motion_ddot": 0,
        "tle_line1": "1 31346U 99025BRA 25356.64494441  .00024407  00000+0  12559-2 0  9999",
        "tle_line2": "2 31346  98.8670 325.1755 0108825 342.8884  16.8683 15.11348724996457"
      },
      "geometry": {
        "type": "Point",
        "coordinates": [
          -20.120216484377522,
          -44.93244026712831
        ]
      }
    },
    {
      "type": "Feature",
      "properties": {
        "norad_id": 31348,
        "name": "FENGYUN 1C DEB",
        "group": "fengyun-1c-debris",
        "lat": 5.901643737612395,
        "lon": 134.33816149574122,
        "alt_km": 801.9484485553767,
        "timestamp": "2025-12-27T14:26:30.803770+00:00",
        "meta_object_name": "FENGYUN 1C DEB",
        "meta_object_id": "1999-025BRC",
        "meta_epoch": "2025-12-26T16:26:24.153792",
        "meta_mean_motion": 14.34133037,
        "meta_eccentricity": 0.00353331,
        "meta_inclination": 99.1209,
        "meta_ra_of_asc_node": 312.4202,
        "meta_arg_of_pericenter": 26.4586,
        "meta_mean_anomaly": 96.8666,
        "meta_ephemeris_type": 0,
        "meta_classification_type": "U",
        "meta_norad_cat_id": 31348,
        "meta_element_set_no": 999,
        "meta_rev_at_epoch": 96449,
        "meta_bstar": 0.0013416035,
        "meta_mean_motion_dot": 3.735e-05,
        "meta_mean_motion_ddot": 0,
        "tle_line1": "1 31348U 99025BRC 25360.68500178  .00003735  00000+0  13416-2 0  9999",
        "tle_line2": "2 31348  99.1209 312.4202 0035333  26.4586  96.8666 14.34133037964495"
      },
      "geometry": {
        "type": "Point",
        "coordinates": [
          134.33816149574122,
          5.901643737612395
        ]
      }
    },
    {
      "type": "Feature",
      "properties": {
        "norad_id": 31350,
        "name": "FENGYUN 1C DEB",
        "group": "fengyun-1c-debris",
        "lat": 61.36987463739587,
        "lon": 10.970657588591202,
        "alt_km": 730.2416948922937,
        "timestamp": "2025-12-27T14:26:30.803780+00:00",
        "meta_object_name": "FENGYUN 1C DEB",
        "meta_object_id": "1999-025BRE",
        "meta_epoch": "2025-12-20T17:53:36.412512",
        "meta_mean_motion": 14.34870807,
        "meta_eccentricity": 0.00669241,
        "meta_inclination": 98.9598,
        "meta_ra_of_asc_node": 167.0621,
        "meta_arg_of_pericenter": 102.0687,
        "meta_mean_anomaly": 258.8007,
        "meta_ephemeris_type": 0,
        "meta_classification_type": "U",
        "meta_norad_cat_id": 31350,
        "meta_element_set_no": 999,
        "meta_rev_at_epoch": 70368,
        "meta_bstar": 0.00033722959,
        "meta_mean_motion_dot": 9.36e-06,
        "meta_mean_motion_ddot": 0,
        "tle_line1": "1 31350U 99025BRE 25354.74556033  .00000936  00000+0  33723-3 0  9997",
        "tle_line2": "2 31350  98.9598 167.0621 0066924 102.0687 258.8007 14.34870807703682"
      },
      "geometry": {
        "type": "Point",
        "coordinates": [
          10.970657588591202,
          61.36987463739587
        ]
      }
    },
    {
      "type": "Feature",
      "properties": {
        "norad_id": 31351,
        "name": "FENGYUN 1C DEB",
        "group": "fengyun-1c-debris",
        "lat": -67.05180792620058,
        "lon": 9.420476205262466,
        "alt_km": 862.8201126547128,
        "timestamp": "2025-12-27T14:26:30.803791+00:00",
        "meta_object_name": "FENGYUN 1C DEB",
        "meta_object_id": "1999-025BRF",
        "meta_epoch": "2025-12-22T10:10:17.163264",
        "meta_mean_motion": 14.06949106,
        "meta_eccentricity": 0.00933431,
        "meta_inclination": 98.7956,
        "meta_ra_of_asc_node": 342.9353,
        "meta_arg_of_pericenter": 24.2832,
        "meta_mean_anomaly": 336.2694,
        "meta_ephemeris_type": 0,
        "meta_classification_type": "U",
        "meta_norad_cat_id": 31351,
        "meta_element_set_no": 999,
        "meta_rev_at_epoch": 61511,
        "meta_bstar": 0.0002975243,
        "meta_mean_motion_dot": 4.73e-06,
        "meta_mean_motion_ddot": 0,
        "tle_line1": "1 31351U 99025BRF 25356.42380976  .00000473  00000+0  29752-3 0  9999",
        "tle_line2": "2 31351  98.7956 342.9353 0093343  24.2832 336.2694 14.06949106615118"
      },
      "geometry": {
        "type": "Point",
        "coordinates": [
          9.420476205262466,
          -67.05180792620058
        ]
      }
    }
  ]
}